GOES 1 (SMS-C) [-]      
1 08366U 75100A   18039.32046132 -.00000106  00000-0  00000-0 0  9996
2 08366  11.6515 315.6765 0006280 313.6031 240.5521  1.00227150154614
GOES 2 [-]              
1 10061U 77048A   18036.94701920  .00000052  00000-0  00000-0 0  9991
2 10061  12.9397 324.9222 0018847 328.6717 220.8018  0.99396561 93165
GOES 3 [-]              
1 10953U 78062A   18039.72302747 -.00000135  00000-0  00000-0 0  9994
2 10953  13.1041 328.5396 0005258 328.2396 201.0604  0.99358507 98229
GOES 4 [-]              
1 11964U 80074A   18039.44833154 -.00000046  00000-0  00000-0 0  9994
2 11964  13.9048 332.2732 0035011  15.9320 148.7100  0.99231677 97168
GOES 5 [-]              
1 12472U 81049A   18039.32015125 -.00000122  00000-0  00000-0 0  9994
2 12472  14.1618 342.5442 0005851 289.5551 238.9648  1.00204999 92372
GOES 6 [-]              
1 14050U 83041A   18039.39851759 -.00000133  00000-0  00000-0 0  9992
2 14050  14.4262 347.4429 0003202 294.3112 258.7006  1.00218317185468
GOES 7 [-]              
1 17561U 87022A   18039.48454799  .00000081  00000-0  00000-0 0  9999
2 17561  15.1310   3.3586 0007887 311.2864 219.5628  0.99895961 96502
GOES 8 [-]              
1 23051U 94022A   18039.47337655 -.00000043  00000-0  00000-0 0  9997
2 23051  11.6719  36.7176 0010132 261.2456 279.9645  0.98903167 93941
GOES 9 [-]              
1 23581U 95025A   18038.07476465  .00000031  00000-0  00000-0 0  9993
2 23581  11.1662  36.2803 0002219 277.7246 272.9217  0.98797887 82596
GOES 10 [-]             
1 24786U 97019A   18038.62442077  .00000020  00000-0  00000-0 0  9997
2 24786   9.5780  41.1936 0028697 175.0724 185.0267  0.99122451 75813
GOES 11 [-]             
1 26352U 00022A   18039.79665778 -.00000175  00000-0  00000-0 0  9992
2 26352   5.4304  71.8132 0006102 201.1109 155.0114  0.99044878 22258
GOES 12 [-]             
1 26871U 01031A   18039.50740632 -.00000064  00000-0  00000-0 0  9998
2 26871   6.7506  58.3250 0011915 240.1879 115.9424  0.99134888 60519
GOES 13 [B]             
1 29155U 06018A   18038.78272639 -.00000296  00000-0  00000-0 0  9999
2 29155   0.3370 102.4260 0004007 302.6777 314.8969  1.00256071 12796
GOES 14 [S]             
1 35491U 09033A   18038.90632523 -.00000105  00000-0  00000-0 0  9994
2 35491   0.0354 249.6058 0008687 355.9125 114.3595  1.00272136 31564
GOES 15 [+]             
1 36411U 10008A   18038.99241721  .00000078  00000-0  00000-0 0  9994
2 36411   0.0488 251.9979 0000754  18.5631  89.3986  1.00267313 29095
GOES 16 [+]             
1 41866U 16071A   18038.82587286 -.00000261  00000-0  00000-0 0  9996
2 41866   0.0220 309.3630 0001501  75.7133 334.8990  1.00271994  4517
